CS2                     
1 49262U 21088C   26068.73485932  .00018033  00000+0  56178-3 0  9999
2 49262  97.3928 134.2907 0011637  82.3491 277.9072 15.33255930245263
STARLINK-34276          
1 64263U 25120H   26068.40011151  .00015066  00000+0  51971-3 0  9999
2 64263  53.1586 117.9046 0001203  90.2666 269.8472 15.30204066 43871
